#aV2008  3 23  0  0   .00000000      96 DD+AD WGS84 FIT  NGA
## 1472       .00000000   900.00000000 54548  .0000000000000
+   31     2  3  4  5  6  7  8  9 10 11 12 13 14 15 16 17 18
+         19 20 21 22 23 24 25 26 27 28 29 30 31 32  0  0  0
+          0  0  0  0  0  0  0  0  0  0  0  0  0  0  0  0  0
+          0  0  0  0  0  0  0  0  0  0  0  0  0  0  0  0  0
+          0  0  0  0  0  0  0  0  0  0  0  0  0  0  0  0  0
++         0  0  0  0  0  0  0  0  0  0  0  0  0  0  0  0  0
++         0  0  0  0  0  0  0  0  0  0  0  0  0  0  0  0  0
++         0  0  0  0  0  0  0  0  0  0  0  0  0  0  0  0  0
++         0  0  0  0  0  0  0  0  0  0  0  0  0  0  0  0  0
++         0  0  0  0  0  0  0  0  0  0  0  0  0  0  0  0  0
%c cc cc ccc ccc cccc cccc cccc cccc ccccc ccccc ccccc ccccc
%c cc cc ccc ccc cccc cccc cccc cccc ccccc ccccc ccccc ccccc
%f  0.0000000  0.000000000  0.00000000000  0.000000000000000
%f  0.0000000  0.000000000  0.00000000000  0.000000000000000
%i    0    0    0    0      0      0      0      0         0
%i    0    0    0    0      0      0      0      0         0
/*      NGA, ST. LOUIS,MO.                                  
/*   EPHEMERIS COMPUTED FROM  3 DAYS OF DATA                
/* CCCCCCCCCCCCCCCCCCCCCCCCCCCCCCCCCCCCCCCCCCCCCCCCCCCCCCCCC
/* CCCCCCCCCCCCCCCCCCCCCCCCCCCCCCCCCCCCCCCCCCCCCCCCCCCCCCCCC
*  2008  3 23 19 45   .00000000                                                 
P  2  17378.435730  -1739.119919 -20093.608086    184.555550                    
V  2 -10606.280196  22991.109753 -11598.082378       .031519                    
P  3 -19394.017690  -3319.746192  17742.623677    204.320928                    
V  3 -12480.273827 -19448.863308 -16691.860169       .052362                    
P  4  12184.395187  10066.209686 -21413.968646    -31.861108                    
V  4 -13562.564103  23427.892389   3673.407329      -.073445                    
P  5  10766.619443 -15276.100102 -19083.332922    730.352433                    
V  5  23816.573550  -1223.692902  14762.458354       .110042                    
P  6 -16052.286581 -21065.348264   2090.142958     74.958099                    
V  6   1660.784688  -4081.634062 -31014.865542       .142396                    
P  7  -6215.538096  24282.310839   8671.878889    -96.035634                    
V  7  -7564.270784   8486.038304 -29168.469955       .154882                    
P  8   4290.587347  17583.464942  19179.572278   -146.050416                    
V  8 -13918.034754  20379.647931 -15952.799782      -.015258                    
P  9  14335.465540 -21561.769843   4874.790142    116.538735                    
V  9   -680.594136   7468.790049  31266.714990       .018331                    
P 10  26670.381380  -1117.857193   1484.257124   -336.900278                    
V 10   2036.013302   2419.743169 -31540.885030      -.413257                    
P 11 -10818.003111  23731.712861   3874.795548     26.737830                    
V 11  -3350.825135  -6527.488582  29805.079571      -.002146                    
P 12  16403.461813 -12164.541669 -16840.871262   -358.403085                    
V 12  21636.068556   1224.838089  20159.313608      -.003957                    
P 13   4615.116006  23582.125679 -11460.772382    246.917168                    
V 13  -8190.243519 -11831.053662 -27885.617506       .019772                    
P 14 -15260.607687 -21456.419964  -3752.642003   -284.881114                    
V 14   -869.078016  -5115.863480  31852.313506       .039048                    
P 15  13746.527383  -6815.388948  21703.629199    -88.605217                    
V 15  14551.342549  23350.178345  -1881.332113      -.042993                    
P 16 -26440.084475  -1720.231488  -2907.787003    130.716941                    
V 16   3735.418762  -2555.011517 -31438.955651      -.010765                    
P 17  15590.545735  21338.415012  -3381.204317     40.724476                    
V 17    -73.200988   5076.743162  31252.936964      -.004155                    
P 18  -2743.113671 -15509.725481  21582.647925   -193.821149                    
V 18  27019.523712     63.638082   3158.498423       .033756                    
P 19 -13861.184244   6543.933293  21778.679344     25.127764                    
V 19 -12786.054470 -24298.866280   -669.276274       .012103                    
P 20 -14043.769896  13617.733011 -18060.454606    118.007797                    
V 20 -22814.207998   -748.761970  17334.738442      -.007936                    
P 21   1521.868827 -22614.636627  13509.230230     68.845658                    
V 21  11282.428510 -13334.451349 -24490.844254      -.009368                    
P 22 -17197.064004 -12094.929944  16407.913324    209.889974                    
V 22  20606.601618  -1757.124928  20448.718343       .001345                    
P 23  -6171.275936  16217.269416 -20108.958173    342.919413                    
V 23 -14208.641229 -21106.232534 -12931.599838       .025623                    
P 24  12623.300711 -23477.414960   1967.050583     80.509278                    
V 24   3568.524672   -497.148762 -31274.886052       .031165                    
P 25  -7838.295448  25251.559965   3735.524308    -17.743806                    
V 25  -3969.750141   2959.997839 -31241.354048      -.346048                    
P 26  15053.970750  -1643.247521  21425.034178    214.661460                    
V 26  13536.415939  24696.475838  -6919.517860       .091268                    
P 27  -1648.772700  23728.126297  12323.971646    176.384451                    
V 27  -8042.452612  12417.728429 -26589.200516       .025907                    
P 28  15215.795870  12657.849489  18251.106939    -16.876230                    
V 28 -22278.928576   1299.986897  17715.027394      -.004891                    
P 29  -1931.051584 -22465.677088 -13940.116106    -47.489090                    
V 29  10983.311576  14292.712793 -24323.286491       .023221                    
P 30   3753.739701 -15681.217711 -21426.282509     68.931000                    
V 30  26474.105821  -1211.855479   5713.624567       .016463                    
P 31 -12740.982468  -7933.397913 -21701.013405    -13.814313                    
V 31  13341.297722 -24665.959227   1274.116699      -.013150                    
P 32 -25921.182655  -4127.179356   3915.070861    255.694787                    
V 32   4589.015257  -2335.506210  31546.100481       .075683                    
EOF
